{
  "norad_id": 46914,
  "name": "KSM1-B",
  "history": [
    {
      "epoch": "2026-03-28T17:00:13.537728Z",
      "apogee_km": 499.53945446286616,
      "perigee_km": 492.0889162520807,
      "latitude_deg": 1.0862545132927253e-05,
      "longitude_deg": 122.0480517062939,
      "height_km": 492.5479126563857,
      "semi_major_axis_km": 6873.951185357473,
      "eccentricity": 0.00054194,
      "inclination_deg": 36.9012,
      "raan_deg": 203.2295,
      "arg_perigee_deg": 309.6569,
      "mean_anomaly_deg": 50.3701,
      "mean_motion_rev_day": 15.23326848
    },
    {
      "epoch": "2026-03-28T23:17:45.953664Z",
      "apogee_km": 499.5177698213747,
      "perigee_km": 492.10078178978074,
      "latitude_deg": -4.5241720713054574e-05,
      "longitude_deg": 25.794593766794957,
      "height_km": 492.417334639679,
      "semi_major_axis_km": 6873.946275805578,
      "eccentricity": 0.0005395,
      "inclination_deg": 36.9013,
      "raan_deg": 201.6196,
      "arg_perigee_deg": 312.4507,
      "mean_anomaly_deg": 47.5784,
      "mean_motion_rev_day": 15.2332848
    },
    {
      "epoch": "2026-03-29T16:35:59.231328Z",
      "apogee_km": 499.3983890964155,
      "perigee_km": 492.0543534705366,
      "latitude_deg": -6.402026729074525e-06,
      "longitude_deg": 121.10098472390526,
      "height_km": 492.09331024819465,
      "semi_major_axis_km": 6873.863371283476,
      "eccentricity": 0.0005342,
      "inclination_deg": 36.9015,
      "raan_deg": 197.1919,
      "arg_perigee_deg": 318.3567,
      "mean_anomaly_deg": 41.6774,
      "mean_motion_rev_day": 15.23356039
    },
    {
      "epoch": "2026-03-30T06:45:25.865568Z",
      "apogee_km": 499.3572607690903,
      "perigee_km": 492.01766596008747,
      "latitude_deg": 5.424853978637322e-05,
      "longitude_deg": -95.46453415840662,
      "height_km": 491.9023685114902,
      "semi_major_axis_km": 6873.824463364588,
      "eccentricity": 0.00053388,
      "inclination_deg": 36.9018,
      "raan_deg": 193.5687,
      "arg_perigee_deg": 322.1071,
      "mean_anomaly_deg": 37.9302,
      "mean_motion_rev_day": 15.23368973
    },
    {
      "epoch": "2026-03-30T14:37:20.667072Z",
      "apogee_km": 499.2327771852606,
      "perigee_km": 492.1263506688101,
      "latitude_deg": 1.134692771212613e-06,
      "longitude_deg": 144.22214305835635,
      "height_km": 491.93653766544855,
      "semi_major_axis_km": 6873.8165639270355,
      "eccentricity": 0.00051692,
      "inclination_deg": 36.902,
      "raan_deg": 191.5568,
      "arg_perigee_deg": 323.436,
      "mean_anomaly_deg": 36.6035,
      "mean_motion_rev_day": 15.23371599
    },
    {
      "epoch": "2026-03-30T16:11:43.577088Z",
      "apogee_km": 499.2259961275886,
      "perigee_km": 492.11270636306654,
      "latitude_deg": -1.0878400875806876e-05,
      "longitude_deg": 120.15986675408223,
      "height_km": 491.8905203332725,
      "semi_major_axis_km": 6873.806351245327,
      "eccentricity": 0.00051742,
      "inclination_deg": 36.902,
      "raan_deg": 191.1546,
      "arg_perigee_deg": 324.3387,
      "mean_anomaly_deg": 35.7015,
      "mean_motion_rev_day": 15.23374994
    },
    {
      "epoch": "2026-03-31T15:47:26.568096Z",
      "apogee_km": 499.08963146763926,
      "perigee_km": 492.0839321891999,
      "latitude_deg": -1.25062189808162e-05,
      "longitude_deg": 119.22381317479648,
      "height_km": 491.60596757302966,
      "semi_major_axis_km": 6873.723781828419,
      "eccentricity": 0.0005096,
      "inclination_deg": 36.9022,
      "raan_deg": 185.1167,
      "arg_perigee_deg": 331.9503,
      "mean_anomaly_deg": 28.097,
      "mean_motion_rev_day": 15.23402443
    },
    {
      "epoch": "2026-04-01T15:23:08.399616Z",
      "apogee_km": 498.9016358562412,
      "perigee_km": 492.1750571621478,
      "latitude_deg": -7.473593482312515e-06,
      "longitude_deg": 118.29161281511458,
      "height_km": 491.50801197211763,
      "semi_major_axis_km": 6873.675346509194,
      "eccentricity": 0.0004893,
      "inclination_deg": 36.9023,
      "raan_deg": 179.0778,
      "arg_perigee_deg": 339.0306,
      "mean_anomaly_deg": 21.0241,
      "mean_motion_rev_day": 15.23418545
    },
    {
      "epoch": "2026-04-02T14:58:49.024992Z",
      "apogee_km": 498.61451544866395,
      "perigee_km": 492.3148595020921,
      "latitude_deg": -2.39271722291157e-05,
      "longitude_deg": 117.36462296569883,
      "height_km": 491.5041756710156,
      "semi_major_axis_km": 6873.601687475378,
      "eccentricity": 0.00045825,
      "inclination_deg": 36.9019,
      "raan_deg": 173.0391,
      "arg_perigee_deg": 347.0847,
      "mean_anomaly_deg": 12.9783,
      "mean_motion_rev_day": 15.23443033
    },
    {
      "epoch": "2026-04-03T13:00:05.467680Z",
      "apogee_km": 498.46919726485703,
      "perigee_km": 492.2679205496106,
      "latitude_deg": -7.932056944948385e-06,
      "longitude_deg": 140.5071532238183,
      "height_km": 491.3919540635679,
      "semi_major_axis_km": 6873.5055589072335,
      "eccentricity": 0.0004511,
      "inclination_deg": 36.9017,
      "raan_deg": 167.4045,
      "arg_perigee_deg": 354.3808,
      "mean_anomaly_deg": 5.6889,
      "mean_motion_rev_day": 15.23474992
    },
    {
      "epoch": "2026-04-04T14:10:05.464128Z",
      "apogee_km": 498.2896607490329,
      "perigee_km": 492.2850372377534,
      "latitude_deg": -4.93964944429784e-05,
      "longitude_deg": 115.53305427705085,
      "height_km": 491.3985801187467,
      "semi_major_axis_km": 6873.424348993393,
      "eccentricity": 0.0004368,
      "inclination_deg": 36.9015,
      "raan_deg": 160.964,
      "arg_perigee_deg": 3.3301,
      "mean_anomaly_deg": 356.7475,
      "mean_motion_rev_day": 15.23501992
    },
    {
      "epoch": "2026-04-05T13:45:41.679648Z",
      "apogee_km": 498.11742436986697,
      "perigee_km": 492.352040160843,
      "latitude_deg": -1.9127867505139208e-05,
      "longitude_deg": 114.62464872078428,
      "height_km": 491.5223522827466,
      "semi_major_axis_km": 6873.371732265355,
      "eccentricity": 0.0004194,
      "inclination_deg": 36.901,
      "raan_deg": 154.9254,
      "arg_perigee_deg": 11.9566,
      "mean_anomaly_deg": 348.1281,
      "mean_motion_rev_day": 15.23519486
    },
    {
      "epoch": "2026-04-06T05:29:25.251072Z",
      "apogee_km": 497.98754440873836,
      "perigee_km": 492.40364900717304,
      "latitude_deg": 3.8538881253864955e-05,
      "longitude_deg": -125.97878145664087,
      "height_km": 491.65497599169817,
      "semi_major_axis_km": 6873.332596707955,
      "eccentricity": 0.0004062,
      "inclination_deg": 36.9008,
      "raan_deg": 150.8994,
      "arg_perigee_deg": 18.4863,
      "mean_anomaly_deg": 341.6033,
      "mean_motion_rev_day": 15.23532498
    },
    {
      "epoch": "2026-04-07T12:56:51.110016Z",
      "apogee_km": 497.8123434756135,
      "perigee_km": 492.4465218369669,
      "latitude_deg": -1.141066509736835e-05,
      "longitude_deg": 112.82010268855528,
      "height_km": 491.91141333576684,
      "semi_major_axis_km": 6873.26643265629,
      "eccentricity": 0.00039034,
      "inclination_deg": 36.9005,
      "raan_deg": 142.848,
      "arg_perigee_deg": 29.9586,
      "mean_anomaly_deg": 330.1385,
      "mean_motion_rev_day": 15.23554497
    },
    {
      "epoch": "2026-04-07T19:14:20.144256Z",
      "apogee_km": 497.8248532775424,
      "perigee_km": 492.4279668479612,
      "latitude_deg": -5.239273566951689e-05,
      "longitude_deg": 16.58019308800423,
      "height_km": 491.9429158501668,
      "semi_major_axis_km": 6873.263410062751,
      "eccentricity": 0.0003926,
      "inclination_deg": 36.9005,
      "raan_deg": 141.2375,
      "arg_perigee_deg": 31.9458,
      "mean_anomaly_deg": 328.1527,
      "mean_motion_rev_day": 15.23555502
    },
    {
      "epoch": "2026-04-08T12:32:24.533952Z",
      "apogee_km": 497.7018753562934,
      "perigee_km": 492.48976544392644,
      "latitude_deg": -9.318321457092688e-06,
      "longitude_deg": 111.92272171350716,
      "height_km": 492.18535424077294,
      "semi_major_axis_km": 6873.23282040011,
      "eccentricity": 0.00037916,
      "inclination_deg": 36.9004,
      "raan_deg": 136.8088,
      "arg_perigee_deg": 39.3142,
      "mean_anomaly_deg": 320.7881,
      "mean_motion_rev_day": 15.23565673
    },
    {
      "epoch": "2026-04-09T12:07:57.145728Z",
      "apogee_km": 497.55258100473657,
      "perigee_km": 492.5541220534915,
      "latitude_deg": -1.1768088160532241e-05,
      "longitude_deg": 111.02892800640365,
      "height_km": 492.57400435696746,
      "semi_major_axis_km": 6873.190351529114,
      "eccentricity": 0.00036362,
      "inclination_deg": 36.9004,
      "raan_deg": 130.7698,
      "arg_perigee_deg": 50.6536,
      "mean_anomaly_deg": 309.4534,
      "mean_motion_rev_day": 15.23579794
    },
    {
      "epoch": "2026-04-10T05:26:00.579840Z",
      "apogee_km": 497.45685316097297,
      "perigee_km": 492.59573968794393,
      "latitude_deg": 6.01730765759246e-06,
      "longitude_deg": -153.62468414526586,
      "height_km": 492.9045971722432,
      "semi_major_axis_km": 6873.163296424458,
      "eccentricity": 0.00035363,
      "inclination_deg": 36.9005,
      "raan_deg": 126.341,
      "arg_perigee_deg": 59.6942,
      "mean_anomaly_deg": 300.4156,
      "mean_motion_rev_day": 15.2358879
    },
    {
      "epoch": "2026-04-11T17:36:28.337184Z",
      "apogee_km": 497.37366084398127,
      "perigee_km": 492.55836487317174,
      "latitude_deg": -3.2396111160515254e-05,
      "longitude_deg": 13.014977513463444,
      "height_km": 493.46085830664225,
      "semi_major_axis_km": 6873.103012858576,
      "eccentricity": 0.0003503,
      "inclination_deg": 36.9006,
      "raan_deg": 117.082,
      "arg_perigee_deg": 75.3389,
      "mean_anomaly_deg": 284.7747,
      "mean_motion_rev_day": 15.23608835
    }
  ]
}